[{"OBJECT_NAME":"FALCONSAT-6","OBJECT_ID":"2018-099BK","EPOCH":"2026-03-09T17:24:38.352096","MEAN_MOTION":15.26532865,"ECCENTRICITY":0.00143698,"INCLINATION":97.3865,"RA_OF_ASC_NODE":145.8165,"ARG_OF_PERICENTER":297.0944,"MEAN_ANOMALY":181.0714,"EPHEMERIS_TYPE":0,"CLASSIFICATION_TYPE":"U","NORAD_CAT_ID":43815,"ELEMENT_SET_NO":999,"REV_AT_EPOCH":39855,"BSTAR":0.00019476898,"MEAN_MOTION_DOT":5.029e-5,"MEAN_MOTION_DDOT":0},{"OBJECT_NAME":"STARLINK-35309","OBJECT_ID":"2025-253E","EPOCH":"2026-03-09T10:45:53.013600","MEAN_MOTION":15.27587607,"ECCENTRICITY":0.00019412,"INCLINATION":43.0018,"RA_OF_ASC_NODE":214.2055,"ARG_OF_PERICENTER":253.3362,"MEAN_ANOMALY":106.7276,"EPHEMERIS_TYPE":0,"CLASSIFICATION_TYPE":"U","NORAD_CAT_ID":66323,"ELEMENT_SET_NO":999,"REV_AT_EPOCH":2020,"BSTAR":0.0010573548,"MEAN_MOTION_DOT":0.00028955,"MEAN_MOTION_DDOT":0}]
